METEOR-M2 4             
1 59051U 24039A   25151.85106982  .00000024  00000+0  30473-4 0  9997
2 59051  98.6488 112.1508 0006795 184.6936 175.4180 14.22366490 65056
GOES 19                 
1 60133U 24119A   25151.44419547 -.00000253  00000+0  00000+0 0  9991
2 60133   0.0445 130.6655 0000061  39.5272 163.6825  1.00269783  3133
