[
  {
    "OBJECT_NAME": "METEOR-M2 4",
    "OBJECT_ID": "2024-039A",
    "EPOCH": "2025-05-31T20:25:32.432448",
    "MEAN_MOTION": 14.2236649,
    "ECCENTRICITY": 0.0006795,
    "INCLINATION": 98.6488,
    "RA_OF_ASC_NODE": 112.1508,
    "ARG_OF_PERICENTER": 184.6936,
    "MEAN_ANOMALY": 175.418,
    "EPHEMERIS_TYPE": 0,
    "CLASSIFICATION_TYPE": "U",
    "NORAD_CAT_ID": 59051,
    "ELEMENT_SET_NO": 999,
    "REV_AT_EPOCH": 6505,
    "BSTAR": 3.0473e-05,
    "MEAN_MOTION_DOT": 2.4e-07,
    "MEAN_MOTION_DDOT": 0
  },
  {
    "OBJECT_NAME": "GOES 19",
    "OBJECT_ID": "2024-119A",
    "EPOCH": "2025-05-31T10:39:38.488608",
    "MEAN_MOTION": 1.00269783,
    "ECCENTRICITY": 6.1e-06,
    "INCLINATION": 0.0445,
    "RA_OF_ASC_NODE": 130.6655,
    "ARG_OF_PERICENTER": 39.5272,
    "MEAN_ANOMALY": 163.6825,
    "EPHEMERIS_TYPE": 0,
    "CLASSIFICATION_TYPE": "U",
    "NORAD_CAT_ID": 60133,
    "ELEMENT_SET_NO": 999,
    "REV_AT_EPOCH": 313,
    "BSTAR": 0,
    "MEAN_MOTION_DOT": -2.53e-06,
    "MEAN_MOTION_DDOT": 0
  }
]